[{"OBJECT_NAME":"POLYITAN-1","OBJECT_ID":"2014-033AJ","EPOCH":"2026-03-09T22:27:50.258304","MEAN_MOTION":15.29568085,"ECCENTRICITY":0.00093607,"INCLINATION":98.1053,"RA_OF_ASC_NODE":86.0432,"ARG_OF_PERICENTER":127.248,"MEAN_ANOMALY":232.9614,"EPHEMERIS_TYPE":0,"CLASSIFICATION_TYPE":"U","NORAD_CAT_ID":40042,"ELEMENT_SET_NO":999,"REV_AT_EPOCH":63840,"BSTAR":0.00083772474,"MEAN_MOTION_DOT":0.00024003,"MEAN_MOTION_DDOT":0},{"OBJECT_NAME":"STARLINK-31606","OBJECT_ID":"2024-076H","EPOCH":"2026-03-09T22:00:01.999584","MEAN_MOTION":15.27570598,"ECCENTRICITY":0.00014715,"INCLINATION":43.0033,"RA_OF_ASC_NODE":7.3104,"ARG_OF_PERICENTER":258.6921,"MEAN_ANOMALY":47.9748,"EPHEMERIS_TYPE":0,"CLASSIFICATION_TYPE":"U","NORAD_CAT_ID":59571,"ELEMENT_SET_NO":999,"REV_AT_EPOCH":585,"BSTAR":0.00010492345,"MEAN_MOTION_DOT":2.625e-5,"MEAN_MOTION_DDOT":0}]
